COMMENT,ORIGINATOR,NORAD_CAT_ID,OBJECT_NAME,OBJECT_TYPE,CLASSIFICATION_TYPE,INTLDES,EPOCH,EPOCH_MICROSECONDS,MEAN_MOTION,ECCENTRICITY,INCLINATION,RA_OF_ASC_NODE,ARG_OF_PERICENTER,MEAN_ANOMALY,EPHEMERIS_TYPE,ELEMENT_SET_NO,REV_AT_EPOCH,BSTAR,MEAN_MOTION_DOT,MEAN_MOTION_DDOT,FILE,TLE_LINE0,TLE_LINE1,TLE_LINE2,OBJECT_ID,OBJECT_NUMBER,SEMIMAJOR_AXIS,PERIOD,APOGEE,PERIGEE,DECAYED
GENERATED VIA SPACETRACK.ORG API,18 SPCS,57309,STARLINK-30163,PAYLOAD,U,23096V,2025-05-27 21:23:32,684928,15.19176792,0.0017295,42.9981,324.4397,285.4967,74.3972,0,999,10385,0.0022297,0.0004804,0,4740593,0 STARLINK-30163,1 57309U 23096V   25147.89135052  .00048040  00000-0  22297-2 0  9996,2 57309  42.9981 324.4397 0017295 285.4967  74.3972 15.19176792103853,2023-096V,57309,6886.464,94.788,520.239,496.419,1
GENERATED VIA SPACETRACK.ORG API,18 SPCS,57309,STARLINK-30163,PAYLOAD,U,23096V,2025-05-28 19:28:59,243520,15.19281218,0.0017281,42.9983,319.3061,290.3176,69.5815,0,999,10396,0.0024821,0.00053709,0,4741176,0 STARLINK-30163,1 57309U 23096V   25148.81179680  .00053709  00000-0  24821-2 0  9997,2 57309  42.9983 319.3061 0017281 290.3176  69.5815 15.19281218103962,2023-096V,57309,6886.149,94.782,519.914,496.114,1
GENERATED VIA SPACETRACK.ORG API,18 SPCS,57309,STARLINK-30163,PAYLOAD,U,23096V,2025-05-28 19:28:59,243520,15.19281218,0.0017281,42.9983,319.3061,290.3176,69.5815,0,999,10399,0.0024821,0.00053709,0,4741293,0 STARLINK-30163,1 57309U 23096V   25148.81179680  .00053709  00000-0  24821-2 0  9997,2 57309  42.9983 319.3061 0017281 290.3176  69.5815 15.19281218103995,2023-096V,57309,6886.149,94.782,519.914,496.114,1
GENERATED VIA SPACETRACK.ORG API,18 SPCS,57309,STARLINK-30163,PAYLOAD,U,23096V,2025-05-29 19:08:59,725536,15.19414898,0.0017481,42.9983,313.8074,296.3174,63.5879,0,999,10411,0.0031576,0.00068806,0,4742119,0 STARLINK-30163,1 57309U 23096V   25149.79791349  .00068806  00000-0  31576-2 0  9996,2 57309  42.9983 313.8074 0017481 296.3174  63.5879 15.19414898104115,2023-096V,57309,6885.745,94.773,519.647,495.573,1
GENERATED VIA SPACETRACK.ORG API,18 SPCS,57309,STARLINK-30163,PAYLOAD,U,23096V,2025-05-29 19:08:59,725536,15.19414898,0.0017481,42.9983,313.8074,296.3174,63.5879,0,999,10414,0.0031576,0.00068806,0,4742222,0 STARLINK-30163,1 57309U 23096V   25149.79791349  .00068806  00000-0  31576-2 0  9996,2 57309  42.9983 313.8074 0017481 296.3174  63.5879 15.19414898104148,2023-096V,57309,6885.745,94.773,519.647,495.573,1
GENERATED VIA SPACETRACK.ORG API,18 SPCS,57309,STARLINK-30163,PAYLOAD,U,23096V,2025-05-30 10:55:36,87456,15.19498746,0.0017569,42.9981,310.1419,300.6989,59.2128,0,999,10424,0.0027851,0.00060745,0,4743029,0 STARLINK-30163,1 57309U 23096V   25150.45527879  .00060745  00000-0  27851-2 0  9991,2 57309  42.9981 310.1419 0017569 300.6989  59.2128 15.19498746104243,2023-096V,57309,6885.491,94.768,519.454,495.259,1
GENERATED VIA SPACETRACK.ORG API,18 SPCS,57309,STARLINK-30163,PAYLOAD,U,23096V,2025-05-30 18:48:53,194464,15.19526909,0.0017518,42.9981,308.3076,302.2755,57.6396,0,999,10426,0.0024837,0.0005414,0,4743184,0 STARLINK-30163,1 57309U 23096V   25150.78394901  .00054140  00000-0  24837-2 0  9998,2 57309  42.9981 308.3076 0017518 302.2755  57.6396 15.19526909104268,2023-096V,57309,6885.406,94.766,519.333,495.210,1
GENERATED VIA SPACETRACK.ORG API,18 SPCS,57309,STARLINK-30163,PAYLOAD,U,23096V,2025-05-31 10:35:25,520640,15.19597294,0.0017676,42.9983,304.6415,306.5629,53.3592,0,999,10439,0.002101,0.00045805,0,4743962,0 STARLINK-30163,1 57309U 23096V   25151.44126760  .00045805  00000-0  21010-2 0  9996,2 57309  42.9983 304.6415 0017676 306.5629  53.3592 15.19597294104398,2023-096V,57309,6885.194,94.762,519.229,494.888,1
GENERATED VIA SPACETRACK.ORG API,18 SPCS,57309,STARLINK-30163,PAYLOAD,U,23096V,2025-06-01 02:21:54,764064,15.19678783,0.0017607,42.9976,300.9749,310.6472,49.2845,0,999,10446,0.0023973,0.0005247,0,4744424,0 STARLINK-30163,1 57309U 23096V   25152.09855051  .00052470  00000-0  23973-2 0  9996,2 57309  42.9976 300.9749 0017607 310.6472  49.2845 15.19678783104461,2023-096V,57309,6884.948,94.757,518.935,494.690,1
GENERATED VIA SPACETRACK.ORG API,18 SPCS,57309,STARLINK-30163,PAYLOAD,U,23096V,2025-06-01 10:15:08,180928,15.19732552,0.001777,42.9977,299.141,312.7516,47.1837,0,999,10451,0.0030408,0.0006686,0,4744782,0 STARLINK-30163,1 57309U 23096V   25152.42717802  .00066860  00000-0  30408-2 0  9993,2 57309  42.9977 299.1410 0017770 312.7516  47.1837 15.19732552104518,2023-096V,57309,6884.785,94.754,518.884,494.416,1
GENERATED VIA SPACETRACK.ORG API,18 SPCS,57309,STARLINK-30163,PAYLOAD,U,23096V,2025-06-01 10:15:08,180928,15.19732552,0.001777,42.9977,299.141,312.7516,47.1837,0,999,10454,0.0030408,0.0006686,0,4744985,0 STARLINK-30163,1 57309U 23096V   25152.42717802  .00066860  00000-0  30408-2 0  9993,2 57309  42.9977 299.1410 0017770 312.7516  47.1837 15.19732552104541,2023-096V,57309,6884.785,94.754,518.884,494.416,1
GENERATED VIA SPACETRACK.ORG API,18 SPCS,57309,STARLINK-30163,PAYLOAD,U,23096V,2025-06-01 16:33:41,978016,15.19862168,0.0017847,42.9981,297.6733,314.2044,45.7338,0,999,10455,0.012614,0.00287633,0,4745178,0 STARLINK-30163,1 57309U 23096V   25152.69006919  .00287633  00000-0  12614-1 0  9993,2 57309  42.9981 297.6733 0017847 314.2044  45.7338 15.19862168104553,2023-096V,57309,6884.394,94.745,518.545,493.972,1
GENERATED VIA SPACETRACK.ORG API,18 SPCS,57309,STARLINK-30163,PAYLOAD,U,23096V,2025-06-01 16:33:41,978016,15.19862168,0.0017847,42.9981,297.6733,314.2044,45.7338,0,999,10458,0.012614,0.00287633,0,4745409,0 STARLINK-30163,1 57309U 23096V   25152.69006919  .00287633  00000-0  12614-1 0  9993,2 57309  42.9981 297.6733 0017847 314.2044  45.7338 15.19862168104586,2023-096V,57309,6884.394,94.745,518.545,493.972,1
GENERATED VIA SPACETRACK.ORG API,18 SPCS,57309,STARLINK-30163,PAYLOAD,U,23096V,2025-06-02 02:01:31,136160,15.19869653,0.0017805,42.9974,295.4736,316.7074,43.2375,0,999,10461,0.002793,0.00061596,0,4745565,0 STARLINK-30163,1 57309U 23096V   25153.08438815  .00061596  00000-0  27930-2 0  9997,2 57309  42.9974 295.4736 0017805 316.7074  43.2375 15.19869653104615,2023-096V,57309,6884.371,94.745,518.494,493.979,1
GENERATED VIA SPACETRACK.ORG API,18 SPCS,57309,STARLINK-30163,PAYLOAD,U,23096V,2025-06-02 16:13:11,589312,15.1999989,0.0017892,42.9949,292.1695,319.7676,40.1847,0,999,10470,0.0050045,0.00111741,0,4746293,0 STARLINK-30163,1 57309U 23096V   25153.67582858  .00111741  00000-0  50045-2 0  9990,2 57309  42.9949 292.1695 0017892 319.7676  40.1847 15.19999890104709,2023-096V,57309,6883.978,94.737,518.160,493.526,1
GENERATED VIA SPACETRACK.ORG API,18 SPCS,57309,STARLINK-30163,PAYLOAD,U,23096V,2025-06-03 09:34:03,353952,15.20122535,0.0017978,42.9964,288.1366,324.3449,35.6198,0,999,10481,0.0050716,0.00113683,0,4747071,0 STARLINK-30163,1 57309U 23096V   25154.39864993  .00113683  00000-0  50716-2 0  9995,2 57309  42.9964 288.1366 0017978 324.3449  35.6198 15.20122535104817,2023-096V,57309,6883.608,94.729,517.848,493.097,1
GENERATED VIA SPACETRACK.ORG API,18 SPCS,57309,STARLINK-30163,PAYLOAD,U,23096V,2025-06-03 12:43:17,805216,15.20142266,0.001801,42.997,287.4022,324.9485,35.0178,0,999,10486,0.0059946,0.00134881,0,4747294,0 STARLINK-30163,1 57309U 23096V   25154.53006719  .00134881  00000-0  59946-2 0  9992,2 57309  42.9970 287.4022 0018010 324.9485  35.0178 15.20142266104869,2023-096V,57309,6883.548,94.728,517.810,493.016,1
GENERATED VIA SPACETRACK.ORG API,18 SPCS,57309,STARLINK-30163,PAYLOAD,U,23096V,2025-06-04 01:20:13,696512,15.20204811,0.0018206,42.9944,284.4656,327.9043,32.0697,0,999,10491,0.0039724,0.00088917,0,4747801,0 STARLINK-30163,1 57309U 23096V   25155.05571408  .00088917  00000-0  39724-2 0  9992,2 57309  42.9944 284.4656 0018206 327.9043  32.0697 15.20204811104914,2023-096V,57309,6883.359,94.724,517.756,492.692,1
GENERATED VIA SPACETRACK.ORG API,18 SPCS,57309,STARLINK-30163,PAYLOAD,U,23096V,2025-06-04 15:31:45,119136,15.20236125,0.0017901,42.9973,281.164,331.8203,28.1676,0,999,10503,0.0020906,0.00046447,0,4748405,0 STARLINK-30163,1 57309U 23096V   25155.64704999  .00046447  00000-0  20906-2 0  9994,2 57309  42.9973 281.1640 0017901 331.8203  28.1676 15.20236125105036,2023-096V,57309,6883.265,94.722,517.452,492.808,1
GENERATED VIA SPACETRACK.ORG API,18 SPCS,57309,STARLINK-30163,PAYLOAD,U,23096V,2025-06-04 15:31:45,119136,15.20236125,0.0017901,42.9973,281.164,331.8203,28.1676,0,999,10500,0.0020906,0.00046447,0,4748543,0 STARLINK-30163,1 57309U 23096V   25155.64704999  .00046447  00000-0  20906-2 0  9994,2 57309  42.9973 281.1640 0017901 331.8203  28.1676 15.20236125105003,2023-096V,57309,6883.265,94.722,517.452,492.808,1
GENERATED VIA SPACETRACK.ORG API,18 SPCS,57309,STARLINK-30163,PAYLOAD,U,23096V,2025-06-05 00:59:24,881280,15.20285598,0.001793,42.997,278.9632,334.3909,25.6051,0,999,10506,0.0026429,0.00058969,0,4748815,0 STARLINK-30163,1 57309U 23096V   25156.04126020  .00058969  00000-0  26429-2 0  9990,2 57309  42.9970 278.9632 0017930 334.3909  25.6051 15.20285598105061,2023-096V,57309,6883.115,94.719,517.322,492.639,1
GENERATED VIA SPACETRACK.ORG API,18 SPCS,57309,STARLINK-30163,PAYLOAD,U,23096V,2025-06-05 08:52:27,359904,15.20312608,0.0017949,42.9969,277.1277,336.2801,23.722,0,999,10514,0.0020206,0.00044977,0,4749058,0 STARLINK-30163,1 57309U 23096V   25156.36976111  .00044977  00000-0  20206-2 0  9990,2 57309  42.9969 277.1277 0017949 336.2801  23.7220 15.20312608105146,2023-096V,57309,6883.034,94.717,517.253,492.545,1
GENERATED VIA SPACETRACK.ORG API,18 SPCS,57309,STARLINK-30163,PAYLOAD,U,23096V,2025-06-05 15:10:52,947264,15.20330423,0.0017857,42.9969,275.6596,337.8222,22.1853,0,999,10515,0.0017472,0.00038844,0,4749267,0 STARLINK-30163,1 57309U 23096V   25156.63255726  .00038844  00000-0  17472-2 0  9999,2 57309  42.9969 275.6596 0017857 337.8222  22.1853 15.20330423105156,2023-096V,57309,6882.980,94.716,517.136,492.554,1
